{
  "type": "FeatureCollection",
  "features": [
    {
      "type": "Feature",
      "properties": {
        "norad_id": 41877,
        "name": "RESOURCESAT-2A",
        "group": "resource",
        "lat": -46.474739748680555,
        "lon": -138.99082184618882,
        "alt_km": 826.28706641996,
        "timestamp": "2025-12-06T11:28:10.686689+00:00",
        "meta_object_name": "RESOURCESAT-2A",
        "meta_object_id": "2016-074A",
        "meta_epoch": "2025-12-05T22:34:48.230400",
        "meta_mean_motion": 14.21595018,
        "meta_eccentricity": 0.00011287,
        "meta_inclination": 98.7767,
        "meta_ra_of_asc_node": 49.8363,
        "meta_arg_of_pericenter": 288.3181,
        "meta_mean_anomaly": 71.7873,
        "meta_ephemeris_type": 0,
        "meta_classification_type": "U",
        "meta_norad_cat_id": 41877,
        "meta_element_set_no": 999,
        "meta_rev_at_epoch": 46684,
        "meta_bstar": 0.00017371029,
        "meta_mean_motion_dot": 3.36e-06,
        "meta_mean_motion_ddot": 0,
        "tle_line1": "1 41877U 16074A   25339.94083600  .00000336  00000+0  17371-3 0  9990",
        "tle_line2": "2 41877  98.7767  49.8363 0001128 288.3181  71.7873 14.21595018466846"
      },
      "geometry": {
        "type": "Point",
        "coordinates": [
          -138.99082184618882,
          -46.474739748680555
        ]
      }
    },
    {
      "type": "Feature",
      "properties": {
        "norad_id": 41948,
        "name": "CARTOSAT-2D",
        "group": "resource",
        "lat": -16.793750776517406,
        "lon": -144.18921666362098,
        "alt_km": 510.6318529820355,
        "timestamp": "2025-12-06T11:28:10.686699+00:00",
        "meta_object_name": "CARTOSAT-2D",
        "meta_object_id": "2017-008A",
        "meta_epoch": "2025-12-05T21:57:33.419232",
        "meta_mean_motion": 15.1915257,
        "meta_eccentricity": 0.00040625,
        "meta_inclination": 97.4398,
        "meta_ra_of_asc_node": 37.5166,
        "meta_arg_of_pericenter": 185.3307,
        "meta_mean_anomaly": 174.7885,
        "meta_ephemeris_type": 0,
        "meta_classification_type": "U",
        "meta_norad_cat_id": 41948,
        "meta_element_set_no": 999,
        "meta_rev_at_epoch": 48823,
        "meta_bstar": 0.00041750824,
        "meta_mean_motion_dot": 8.712e-05,
        "meta_mean_motion_ddot": 0,
        "tle_line1": "1 41948U 17008A   25339.91497013  .00008712  00000+0  41751-3 0  9996",
        "tle_line2": "2 41948  97.4398  37.5166 0004062 185.3307 174.7885 15.19152570488236"
      },
      "geometry": {
        "type": "Point",
        "coordinates": [
          -144.18921666362098,
          -16.793750776517406
        ]
      }
    },
    {
      "type": "Feature",
      "properties": {
        "norad_id": 42063,
        "name": "SENTINEL-2B",
        "group": "resource",
        "lat": -11.685477173354363,
        "lon": 54.79943563488764,
        "alt_km": 793.5891177260264,
        "timestamp": "2025-12-06T11:28:10.686710+00:00",
        "meta_object_name": "SENTINEL-2B",
        "meta_object_id": "2017-013A",
        "meta_epoch": "2025-12-05T22:05:53.211264",
        "meta_mean_motion": 14.3081181,
        "meta_eccentricity": 0.00011252,
        "meta_inclination": 98.5726,
        "meta_ra_of_asc_node": 52.4623,
        "meta_arg_of_pericenter": 97.9023,
        "meta_mean_anomaly": 262.2287,
        "meta_ephemeris_type": 0,
        "meta_classification_type": "U",
        "meta_norad_cat_id": 42063,
        "meta_element_set_no": 999,
        "meta_rev_at_epoch": 45700,
        "meta_bstar": 0.00013627387,
        "meta_mean_motion_dot": 3.14e-06,
        "meta_mean_motion_ddot": 0,
        "tle_line1": "1 42063U 17013A   25339.92075476  .00000314  00000+0  13627-3 0  9998",
        "tle_line2": "2 42063  98.5726  52.4623 0001125  97.9023 262.2287 14.30811810457007"
      },
      "geometry": {
        "type": "Point",
        "coordinates": [
          54.79943563488764,
          -11.685477173354363
        ]
      }
    },
    {
      "type": "Feature",
      "properties": {
        "norad_id": 42767,
        "name": "CARTOSAT-2E",
        "group": "resource",
        "lat": 71.64940756467787,
        "lon": -118.59692259982383,
        "alt_km": 502.8339171217567,
        "timestamp": "2025-12-06T11:28:10.686732+00:00",
        "meta_object_name": "CARTOSAT-2E",
        "meta_object_id": "2017-036C",
        "meta_epoch": "2025-12-05T22:21:18.104256",
        "meta_mean_motion": 15.19216278,
        "meta_eccentricity": 0.00023327,
        "meta_inclination": 97.4565,
        "meta_ra_of_asc_node": 37.607,
        "meta_arg_of_pericenter": 272.4297,
        "meta_mean_anomaly": 87.667,
        "meta_ephemeris_type": 0,
        "meta_classification_type": "U",
        "meta_norad_cat_id": 42767,
        "meta_element_set_no": 999,
        "meta_rev_at_epoch": 46880,
        "meta_bstar": 0.00039920126,
        "meta_mean_motion_dot": 8.341e-05,
        "meta_mean_motion_ddot": 0,
        "tle_line1": "1 42767U 17036C   25339.93145954  .00008341  00000+0  39920-3 0  9996",
        "tle_line2": "2 42767  97.4565  37.6070 0002332 272.4297  87.6670 15.19216278468802"
      },
      "geometry": {
        "type": "Point",
        "coordinates": [
          -118.59692259982383,
          71.64940756467787
        ]
      }
    },
    {
      "type": "Feature",
      "properties": {
        "norad_id": 42920,
        "name": "FORMOSAT-5",
        "group": "resource",
        "lat": -73.8055009603401,
        "lon": -155.03440550769707,
        "alt_km": 726.1580748510969,
        "timestamp": "2025-12-06T11:28:10.686746+00:00",
        "meta_object_name": "FORMOSAT-5",
        "meta_object_id": "2017-049A",
        "meta_epoch": "2025-12-05T22:42:27.011808",
        "meta_mean_motion": 14.50998935,
        "meta_eccentricity": 0.00101683,
        "meta_inclination": 98.2459,
        "meta_ra_of_asc_node": 54.3997,
        "meta_arg_of_pericenter": 318.39,
        "meta_mean_anomaly": 41.6521,
        "meta_ephemeris_type": 0,
        "meta_classification_type": "U",
        "meta_norad_cat_id": 42920,
        "meta_element_set_no": 999,
        "meta_rev_at_epoch": 43865,
        "meta_bstar": 0.00013791371,
        "meta_mean_motion_dot": 5.02e-06,
        "meta_mean_motion_ddot": 0,
        "tle_line1": "1 42920U 17049A   25339.94614597  .00000502  00000+0  13791-3 0  9995",
        "tle_line2": "2 42920  98.2459  54.3997 0010168 318.3900  41.6521 14.50998935438651"
      },
      "geometry": {
        "type": "Point",
        "coordinates": [
          -155.03440550769707,
          -73.8055009603401
        ]
      }
    },
    {
      "type": "Feature",
      "properties": {
        "norad_id": 42969,
        "name": "SENTINEL-5P",
        "group": "resource",
        "lat": -76.62941741706888,
        "lon": -40.340205690351766,
        "alt_km": 834.9388159034397,
        "timestamp": "2025-12-06T11:28:10.686757+00:00",
        "meta_object_name": "SENTINEL-5P",
        "meta_object_id": "2017-064A",
        "meta_epoch": "2025-12-05T18:55:43.611744",
        "meta_mean_motion": 14.19514745,
        "meta_eccentricity": 9.236e-05,
        "meta_inclination": 98.7773,
        "meta_ra_of_asc_node": 278.4348,
        "meta_arg_of_pericenter": 86.4083,
        "meta_mean_anomaly": 273.7199,
        "meta_ephemeris_type": 0,
        "meta_classification_type": "U",
        "meta_norad_cat_id": 42969,
        "meta_element_set_no": 999,
        "meta_rev_at_epoch": 42212,
        "meta_bstar": 0.00010700999,
        "meta_mean_motion_dot": 1.81e-06,
        "meta_mean_motion_ddot": 0,
        "tle_line1": "1 42969U 17064A   25339.78869921  .00000181  00000+0  10701-3 0  9991",
        "tle_line2": "2 42969  98.7773 278.4348 0000923  86.4083 273.7199 14.19514745422122"
      },
      "geometry": {
        "type": "Point",
        "coordinates": [
          -40.340205690351766,
          -76.62941741706888
        ]
      }
    },
    {
      "type": "Feature",
      "properties": {
        "norad_id": 42987,
        "name": "SKYSAT-C11",
        "group": "resource",
        "lat": 38.666337044605044,
        "lon": 111.83563829862392,
        "alt_km": 422.3129223261103,
        "timestamp": "2025-12-06T11:28:10.686769+00:00",
        "meta_object_name": "SKYSAT-C11",
        "meta_object_id": "2017-068A",
        "meta_epoch": "2025-12-05T22:52:56.877312",
        "meta_mean_motion": 15.47026067,
        "meta_eccentricity": 9.558e-05,
        "meta_inclination": 97.4143,
        "meta_ra_of_asc_node": 117.2799,
        "meta_arg_of_pericenter": 111.2828,
        "meta_mean_anomaly": 248.8524,
        "meta_ephemeris_type": 0,
        "meta_classification_type": "U",
        "meta_norad_cat_id": 42987,
        "meta_element_set_no": 999,
        "meta_rev_at_epoch": 45326,
        "meta_bstar": 0.00056879594,
        "meta_mean_motion_dot": 0.00028714,
        "meta_mean_motion_ddot": 0,
        "tle_line1": "1 42987U 17068A   25339.95343608  .00028714  00000+0  56880-3 0  9993",
        "tle_line2": "2 42987  97.4143 117.2799 0000955 111.2828 248.8524 15.47026067453269"
      },
      "geometry": {
        "type": "Point",
        "coordinates": [
          111.83563829862392,
          38.666337044605044
        ]
      }
    }
  ]
}